{"type": "FeatureCollection", "features": [ {"type": "Feature", "properties": {"norad_id": 42969, "name": "SENTINEL-5P", "group": "resource", "lat": -6.140288952982719, "lon": 98.91554701864547, "alt_km": 830.8053072252023, "timestamp": "2025-12-07T05:38:09.565515+00:00", "meta": {"OBJECT_NAME": "SENTINEL-5P", "OBJECT_ID": "2017-064A", "EPOCH": "2025-12-06T13:32:13.730784", "MEAN_MOTION": 14.1951503, "ECCENTRICITY": 9.523e-05, "INCLINATION": 98.7776, "RA_OF_ASC_NODE": 279.2033, "ARG_OF_PERICENTER": 86.5858, "MEAN_ANOMALY": 273.5427, "EPHEMERIS_TYPE": 0, "CLASSIFICATION_TYPE": "U", "NORAD_CAT_ID": 42969, "ELEMENT_SET_NO": 999, "REV_AT_EPOCH": 42223, "BSTAR": 0.00010652491, "MEAN_MOTION_DOT": 1.8e-06, "MEAN_MOTION_DDOT": 0}, "tle": {"line1": "1 42969U 17064A   25340.56404781  .00000180  00000+0  10652-3 0  9992", "line2": "2 42969  98.7776 279.2033 0000952  86.5858 273.5427 14.19515030422230"}}, "geometry": {"type": "Point", "coordinates": [98.91554701864547, -6.140288952982719]}}, {"type": "Feature", "properties": {"norad_id": 42987, "name": "SKYSAT-C11", "group": "resource", "lat": -66.75260198449266, "lon": 136.23883980196084, "alt_km": 433.088643004864, "timestamp": "2025-12-07T05:38:09.565525+00:00", "meta": {"OBJECT_NAME": "SKYSAT-C11", "OBJECT_ID": "2017-068A", "EPOCH": "2025-12-06T14:24:21.705408", "MEAN_MOTION": 15.47070352, "ECCENTRICITY": 9.354e-05, "INCLINATION": 97.4144, "RA_OF_ASC_NODE": 117.9423, "ARG_OF_PERICENTER": 109.566, "MEAN_ANOMALY": 250.5691, "EPHEMERIS_TYPE": 0, "CLASSIFICATION_TYPE": "U", "NORAD_CAT_ID": 42987, "ELEMENT_SET_NO": 999, "REV_AT_EPOCH": 45336, "BSTAR": 0.00067979962, "MEAN_MOTION_DOT": 0.00034413, "MEAN_MOTION_DDOT": 0}, "tle": {"line1": "1 42987U 17068A   25340.60025122  .00034413  00000+0  67980-3 0  9991", "line2": "2 42987  97.4144 117.9423 0000935 109.5660 250.5691 15.47070352453365"}}, "geometry": {"type": "Point", "coordinates": [136.23883980196084, -66.75260198449266]}}, {"type": "Feature", "properties": {"norad_id": 42988, "name": "SKYSAT-C10", "group": "resource", "lat": -44.23237572647897, "lon": 119.36707725691876, "alt_km": 480.3797830739122, "timestamp": "2025-12-07T05:38:09.565535+00:00", "meta": {"OBJECT_NAME": "SKYSAT-C10", "OBJECT_ID": "2017-068B", "EPOCH": "2025-12-06T14:09:13.640544", "MEAN_MOTION": 15.31865572, "ECCENTRICITY": 0.00052382, "INCLINATION": 97.4261, "RA_OF_ASC_NODE": 111.4252, "ARG_OF_PERICENTER": 121.0283, "MEAN_ANOMALY": 239.1474, "EPHEMERIS_TYPE": 0, "CLASSIFICATION_TYPE": "U", "NORAD_CAT_ID": 42988, "ELEMENT_SET_NO": 999, "REV_AT_EPOCH": 45285, "BSTAR": 0.00059459705, "MEAN_MOTION_DOT": 0.00018246, "MEAN_MOTION_DDOT": 0}, "tle": {"line1": "1 42988U 17068B   25340.58974121  .00018246  00000+0  59460-3 0  9991", "line2": "2 42988  97.4261 111.4252 0005238 121.0283 239.1474 15.31865572452850"}}, "geometry": {"type": "Point", "coordinates": [119.36707725691876, -44.23237572647897]}}, {"type": "Feature", "properties": {"norad_id": 42989, "name": "SKYSAT-C9", "group": "resource", "lat": 80.66594292731462, "lon": 58.99752687079572, "alt_km": 444.2236943553253, "timestamp": "2025-12-07T05:38:09.565545+00:00", "meta": {"OBJECT_NAME": "SKYSAT-C9", "OBJECT_ID": "2017-068C", "EPOCH": "2025-12-06T15:11:50.364384", "MEAN_MOTION": 15.35814657, "ECCENTRICITY": 0.00106586, "INCLINATION": 97.4193, "RA_OF_ASC_NODE": 110.8406, "ARG_OF_PERICENTER": 107.5926, "MEAN_ANOMALY": 252.6483, "EPHEMERIS_TYPE": 0, "CLASSIFICATION_TYPE": "U", "NORAD_CAT_ID": 42989, "ELEMENT_SET_NO": 999, "REV_AT_EPOCH": 45314, "BSTAR": 0.00060942795, "MEAN_MOTION_DOT": 0.00021226, "MEAN_MOTION_DDOT": 0}, "tle": {"line1": "1 42989U 17068C   25340.63322181  .00021226  00000+0  60943-3 0  9991", "line2": "2 42989  97.4193 110.8406 0010658 107.5926 252.6483 15.35814657453149"}}, "geometry": {"type": "Point", "coordinates": [58.99752687079572, 80.66594292731462]}}, {"type": "Feature", "properties": {"norad_id": 42990, "name": "SKYSAT-C8", "group": "resource", "lat": 62.13006253568636, "lon": -54.50304091893203, "alt_km": 462.05491713421725, "timestamp": "2025-12-07T05:38:09.565555+00:00", "meta": {"OBJECT_NAME": "SKYSAT-C8", "OBJECT_ID": "2017-068D", "EPOCH": "2025-12-06T15:01:34.713408", "MEAN_MOTION": 15.3271899, "ECCENTRICITY": 0.00020059, "INCLINATION": 97.4285, "RA_OF_ASC_NODE": 110.6013, "ARG_OF_PERICENTER": 10.7974, "MEAN_ANOMALY": 349.331, "EPHEMERIS_TYPE": 0, "CLASSIFICATION_TYPE": "U", "NORAD_CAT_ID": 42990, "ELEMENT_SET_NO": 999, "REV_AT_EPOCH": 45277, "BSTAR": 0.00058197291, "MEAN_MOTION_DOT": 0.00018334, "MEAN_MOTION_DDOT": 0}, "tle": {"line1": "1 42990U 17068D   25340.62609622  .00018334  00000+0  58197-3 0  9994", "line2": "2 42990  97.4285 110.6013 0002005  10.7974 349.3310 15.32718990452771"}}, "geometry": {"type": "Point", "coordinates": [-54.50304091893203, 62.13006253568636]}}, {"type": "Feature", "properties": {"norad_id": 42991, "name": "SKYSAT-C7", "group": "resource", "lat": -16.043488336476894, "lon": 114.4083983545825, "alt_km": 474.32107151419405, "timestamp": "2025-12-07T05:38:09.565564+00:00", "meta": {"OBJECT_NAME": "SKYSAT-C7", "OBJECT_ID": "2017-068E", "EPOCH": "2025-12-06T15:35:57.859872", "MEAN_MOTION": 15.32127942, "ECCENTRICITY": 0.00078449, "INCLINATION": 97.4291, "RA_OF_ASC_NODE": 111.6713, "ARG_OF_PERICENTER": 76.0045, "MEAN_ANOMALY": 284.2069, "EPHEMERIS_TYPE": 0, "CLASSIFICATION_TYPE": "U", "NORAD_CAT_ID": 42991, "ELEMENT_SET_NO": 999, "REV_AT_EPOCH": 45284, "BSTAR": 0.00061093772, "MEAN_MOTION_DOT": 0.00018915, "MEAN_MOTION_DDOT": 0}, "tle": {"line1": "1 42991U 17068E   25340.64997523  .00018915  00000+0  61094-3 0  9992", "line2": "2 42991  97.4291 111.6713 0007844  76.0045 284.2069 15.32127942452844"}}, "geometry": {"type": "Point", "coordinates": [114.4083983545825, -16.043488336476894]}}, {"type": "Feature", "properties": {"norad_id": 42992, "name": "SKYSAT-C6", "group": "resource", "lat": 61.577657719793415, "lon": -53.34087877495622, "alt_km": 462.57460697356964, "timestamp": "2025-12-07T05:38:09.565574+00:00", "meta": {"OBJECT_NAME": "SKYSAT-C6", "OBJECT_ID": "2017-068F", "EPOCH": "2025-12-06T08:44:14.202528", "MEAN_MOTION": 15.31291462, "ECCENTRICITY": 0.0005184, "INCLINATION": 97.4325, "RA_OF_ASC_NODE": 111.8281, "ARG_OF_PERICENTER": 100.3236, "MEAN_ANOMALY": 259.859, "EPHEMERIS_TYPE": 0, "CLASSIFICATION_TYPE": "U", "NORAD_CAT_ID": 42992, "ELEMENT_SET_NO": 999, "REV_AT_EPOCH": 45278, "BSTAR": 0.00058320518, "MEAN_MOTION_DOT": 0.00017576, "MEAN_MOTION_DDOT": 0}, "tle": {"line1": "1 42992U 17068F   25340.36405327  .00017576  00000+0  58321-3 0  9999", "line2": "2 42992  97.4325 111.8281 0005184 100.3236 259.8590 15.31291462452781"}}, "geometry": {"type": "Point", "coordinates": [-53.34087877495622, 61.577657719793415]}}, {"type": "Feature", "properties": {"norad_id": 43111, "name": "CARTOSAT-2F", "group": "resource", "lat": 73.60931518541875, "lon": -114.69063952456476, "alt_km": 500.8720450556184, "timestamp": "2025-12-07T05:38:09.565584+00:00", "meta": {"OBJECT_NAME": "CARTOSAT-2F", "OBJECT_ID": "2018-004A", "EPOCH": "2025-12-06T14:56:59.827488", "MEAN_MOTION": 15.19183583, "ECCENTRICITY": 6.207e-05, "INCLINATION": 97.4325, "RA_OF_ASC_NODE": 38.3594, "ARG_OF_PERICENTER": 135.4458, "MEAN_ANOMALY": 224.6827, "EPHEMERIS_TYPE": 0, "CLASSIFICATION_TYPE": "U", "NORAD_CAT_ID": 43111, "ELEMENT_SET_NO": 999, "REV_AT_EPOCH": 43809, "BSTAR": 0.00040218062, "MEAN_MOTION_DOT": 8.396e-05, "MEAN_MOTION_DDOT": 0}, "tle": {"line1": "1 43111U 18004A   25340.62291467  .00008396  00000+0  40218-3 0  9997", "line2": "2 43111  97.4325  38.3594 0000620 135.4458 224.6827 15.19183583438091"}}, "geometry": {"type": "Point", "coordinates": [-114.69063952456476, 73.60931518541875]}}, {"type": "Feature", "properties": {"norad_id": 43259, "name": "GAOFEN-1 02", "group": "resource", "lat": -2.977285649814718, "lon": 39.44538218821254, "alt_km": 644.3877535899592, "timestamp": "2025-12-07T05:38:09.565594+00:00", "meta": {"OBJECT_NAME": "GAOFEN-1 02", "OBJECT_ID": "2018-031A", "EPOCH": "2025-12-06T15:00:40.214880", "MEAN_MOTION": 14.7646136, "ECCENTRICITY": 0.00013858, "INCLINATION": 98.0816, "RA_OF_ASC_NODE": 38.4123, "ARG_OF_PERICENTER": 238.9582, "MEAN_ANOMALY": 121.1492, "EPHEMERIS_TYPE": 0, "CLASSIFICATION_TYPE": "U", "NORAD_CAT_ID": 43259, "ELEMENT_SET_NO": 999, "REV_AT_EPOCH": 41428, "BSTAR": 0.00027924417, "MEAN_MOTION_DOT": 1.892e-05, "MEAN_MOTION_DDOT": 0}, "tle": {"line1": "1 43259U 18031A   25340.62546545  .00001892  00000+0  27924-3 0  9993", "line2": "2 43259  98.0816  38.4123 0001385 238.9582 121.1492 14.76461360414289"}}, "geometry": {"type": "Point", "coordinates": [39.44538218821254, -2.977285649814718]}}, {"type": "Feature", "properties": {"norad_id": 43260, "name": "GAOFEN-1 03", "group": "resource", "lat": 65.67086301155186, "lon": -122.78657348353656, "alt_km": 635.2453861262693, "timestamp": "2025-12-07T05:38:09.565604+00:00", "meta": {"OBJECT_NAME": "GAOFEN-1 03", "OBJECT_ID": "2018-031B", "EPOCH": "2025-12-06T14:29:14.312832", "MEAN_MOTION": 14.76417917, "ECCENTRICITY": 0.00023747, "INCLINATION": 98.0805, "RA_OF_ASC_NODE": 38.2682, "ARG_OF_PERICENTER": 347.8557, "MEAN_ANOMALY": 12.2595, "EPHEMERIS_TYPE": 0, "CLASSIFICATION_TYPE": "U", "NORAD_CAT_ID": 43260, "ELEMENT_SET_NO": 999, "REV_AT_EPOCH": 41427, "BSTAR": 0.00030347646, "MEAN_MOTION_DOT": 2.058e-05, "MEAN_MOTION_DDOT": 0}, "tle": {"line1": "1 43260U 18031B   25340.60363788  .00002058  00000+0  30348-3 0  9998", "line2": "2 43260  98.0805  38.2682 0002374 347.8557  12.2595 14.76417917414270"}}, "geometry": {"type": "Point", "coordinates": [-122.78657348353656, 65.67086301155186]}}]}